OBJECT_NAME,OBJECT_ID,EPOCH,MEAN_MOTION,ECCENTRICITY,INCLINATION,RA_OF_ASC_NODE,ARG_OF_PERICENTER,MEAN_ANOMALY,EPHEMERIS_TYPE,CLASSIFICATION_TYPE,NORAD_CAT_ID,ELEMENT_SET_NO,REV_AT_EPOCH,BSTAR,MEAN_MOTION_DOT,MEAN_MOTION_DDOT
HODOYOSHI-4,2014-033B,2026-07-13T19:04:58.686816,14.88186199,.0022621,97.5454,18.3350,214.4142,145.5612,0,U,40011,999,65276,.92707E-4,.806E-5,0
DEIMOS-2,2014-033D,2026-07-13T20:15:10.192608,14.93791223,.0000836,97.5799,68.3928,97.3985,262.7330,0,U,40013,999,64170,.33869E-4,.305E-5,0
HODOYOSHI-3,2014-033F,2026-07-13T10:57:17.838144,14.85435370,.00312893,97.6442,356.4440,267.9107,91.8526,0,U,40015,999,65152,.62095972E-4,.486E-5,0
SPOT 7,2014-034A,2026-07-13T19:45:59.338944,14.60980046,.0001593,98.0624,256.6271,95.0950,265.0433,0,U,40053,999,64102,.49754E-4,.199E-5,0
SKYSAT-B,2014-037D,2026-07-13T19:41:16.549152,14.88090194,.0005458,98.3852,155.3068,176.8262,183.2988,0,U,40072,999,64992,.731E-4,.611E-5,0
WORLDVIEW-3 (WV-3),2014-048A,2026-07-13T20:23:24.882720,14.85062979,.0001199,97.8557,269.3136,158.1665,201.9601,0,U,40115,999,64586,.55989E-4,.425E-5,0
GAOFEN-2,2014-049A,2026-07-13T20:46:04.181952,14.80925464,.0008148,98.0105,259.0453,138.4313,221.7520,0,U,40118,999,64318,.35396E-4,.22E-5,0
YAOGAN-21,2014-053A,2026-07-13T20:10:56.836704,15.26748175,.0007967,97.1464,233.9363,12.5716,347.5720,0,U,40143,999,65902,.16788E-3,.4348E-4,0
YAOGAN-22,2014-063A,2026-07-13T10:09:32.832288,13.15531621,.00068372,100.7759,346.1359,128.8633,231.3089,0,U,40275,999,56326,-.39219674E-4,-.62E-6,0
ASNARO,2014-070A,2026-07-13T19:51:41.664384,15.19815494,.000677,97.3448,270.2259,91.7292,268.4719,0,U,40298,999,64805,.22224E-3,.4697E-4,0
YAOGAN-24,2014-072A,2026-07-13T20:34:20.620704,14.76117144,.0014493,98.1514,332.4222,173.8074,186.3317,0,U,40310,999,62765,.35492E-4,.192E-5,0
CBERS 4,2014-079A,2026-07-13T20:56:14.872704,14.35515011,.0000857,98.3526,250.8647,51.7624,308.3639,0,U,40336,999,60778,-.30863E-4,-.131E-5,0
YAOGAN-26,2014-088A,2026-07-13T21:32:06.059904,15.48406033,.0002087,97.0643,194.4994,348.8364,11.2841,0,U,40362,999,64183,.19079E-3,.10025E-3,0
SMAP,2015-003A,2026-07-13T19:33:21.864960,14.63388478,.000159,98.1283,201.5329,95.1775,264.9608,0,U,40376,999,61151,.48892E-4,.206E-5,0
KOMPSAT-3A,2015-014A,2026-07-13T21:19:48.489024,15.55371498,.0056388,97.6884,188.2315,80.2359,280.5256,0,U,40536,999,62596,.30528E-3,.22194E-3,0
SENTINEL-2A,2015-028A,2026-07-13T20:35:35.597760,14.30813560,.0001278,98.5684,269.3298,94.9725,265.1604,0,U,40697,999,57754,-.23461E-4,-.105E-5,0
GAOFEN-8,2015-030A,2026-07-13T21:01:57.047808,15.46917696,.0009978,97.6890,29.8674,99.5149,260.7228,0,U,40701,999,61557,.32056E-3,.16081E-3,0
CARBONITE 1 (CBNT-1),2015-032D,2026-07-13T19:44:53.554848,14.83664065,.0013716,97.6516,11.7768,201.8214,158.2418,0,U,40718,999,59329,.58681E-4,.434E-5,0
YAOGAN-27,2015-040A,2026-07-13T20:44:00.940992,13.16071862,.0008517,100.1160,180.0901,148.0309,212.1322,0,U,40878,999,52117,.64071E-3,.201E-5,0
GAOFEN-9 01,2015-047A,2026-07-13T20:25:05.189664,14.82933512,.002854,97.6271,229.3329,54.7191,305.6687,0,U,40894,999,58414,.66073E-4,.489E-5,0
YAOGAN-28,2015-064A,2026-07-13T20:27:12.600288,15.27749373,.0012079,97.3104,332.5806,97.2365,263.0248,0,U,41026,999,59475,.15762E-3,.4208E-4,0
YAOGAN-29,2015-069A,2026-07-13T21:28:46.252992,14.83104215,.0000824,98.0024,223.5682,13.1391,346.9843,0,U,41038,999,57458,.54536E-5,-.1E-6,0
KENT RIDGE 1,2015-077B,2026-07-13T21:07:33.478176,15.23280102,.0008288,14.9803,67.4430,256.4533,103.4866,0,U,41167,999,58517,.72272E-4,.2527E-4,0
GAOFEN-4,2015-083A,2026-07-13T16:26:26.113344,1.00274923,.000394,0.4223,83.7871,124.9375,75.1281,0,U,41194,999,3879,0,-.34E-5,0
JASON-3,2016-002A,2026-07-13T21:02:13.615008,12.87628572,.0008196,66.0416,69.7248,271.0448,88.9632,0,U,41240,999,49068,.15784E-3,-.22E-6,0
SENTINEL-3A,2016-011A,2026-07-13T20:46:54.751008,14.26739541,.0001367,98.6238,261.8648,90.5342,269.5995,0,U,41335,999,54186,.37402E-4,.47E-6,0
ZIYUAN 3-02 (ZY 3-02),2016-033A,2026-07-13T19:52:57.908064,15.21426337,.0013919,97.3832,270.0903,189.6555,170.4415,0,U,41556,999,56203,.14026E-3,.3087E-4,0
CARTOSAT-2C,2016-040A,2026-07-13T20:49:00.651360,15.19256024,.0009712,97.4474,254.4758,49.2498,310.9579,0,U,41599,999,55776,.67523E-4,.1356E-4,0
SKYSAT-C1,2016-040C,2026-07-13T15:46:01.644672,15.36731294,.0000427,96.9551,224.9469,340.2568,19.8661,0,U,41601,999,56193,.15145E-3,.5359E-4,0
LAPAN-A3,2016-040E,2026-07-13T21:14:13.067808,15.33272708,.0008276,97.1503,190.1578,282.0439,77.9876,0,U,41603,999,55890,.61586E-4,.1906E-4,0
GAOFEN-3,2016-049A,2026-07-13T20:43:57.892800,14.42218050,.0001781,98.4013,202.2469,86.1404,273.9990,0,U,41727,999,52249,-.35913E-4,-.162E-5,0
