HODOYOSHI-4             
1 40011U 14033B   26194.79512369  .00000806  00000+0  92707-4 0  9993
2 40011  97.5454  18.3350 0022621 214.4142 145.5612 14.88186199652768
DEIMOS-2                
1 40013U 14033D   26194.84386797  .00000305  00000+0  33869-4 0  9993
2 40013  97.5799  68.3928 0000836  97.3985 262.7330 14.93791223641702
HODOYOSHI-3             
1 40015U 14033F   26194.45645646  .00000486  00000+0  62096-4 0  9997
2 40015  97.6442 356.4440 0031289 267.9107  91.8526 14.85435370651525
SPOT 7                  
1 40053U 14034A   26194.82360346  .00000199  00000+0  49754-4 0  9999
2 40053  98.0624 256.6271 0001593  95.0950 265.0433 14.60980046641022
SKYSAT-B                
1 40072U 14037D   26194.82033043  .00000611  00000+0  73100-4 0  9995
2 40072  98.3852 155.3068 0005458 176.8262 183.2988 14.88090194649925
WORLDVIEW-3 (WV-3)      
1 40115U 14048A   26194.84959355  .00000425  00000+0  55989-4 0  9998
2 40115  97.8557 269.3136 0001199 158.1665 201.9601 14.85062979645865
GAOFEN-2                
1 40118U 14049A   26194.86532618  .00000220  00000+0  35396-4 0  9996
2 40118  98.0105 259.0453 0008148 138.4313 221.7520 14.80925464643185
YAOGAN-21               
1 40143U 14053A   26194.84093561  .00004348  00000+0  16788-3 0  9994
2 40143  97.1464 233.9363 0007967  12.5716 347.5720 15.26748175659021
YAOGAN-22               
1 40275U 14063A   26194.42329667 -.00000062  00000+0 -39220-4 0  9992
2 40275 100.7759 346.1359 0006837 128.8633 231.3089 13.15531621563261
ASNARO                  
1 40298U 14070A   26194.82756556  .00004697  00000+0  22224-3 0  9991
2 40298  97.3448 270.2259 0006770  91.7292 268.4719 15.19815494648054
YAOGAN-24               
1 40310U 14072A   26194.85718311  .00000192  00000+0  35492-4 0  9996
2 40310  98.1514 332.4222 0014493 173.8074 186.3317 14.76117144627658
CBERS 4                 
1 40336U 14079A   26194.87239436 -.00000131  00000+0 -30863-4 0  9991
2 40336  98.3526 250.8647 0000857  51.7624 308.3639 14.35515011607784
YAOGAN-26               
1 40362U 14088A   26194.89729236  .00010025  00000+0  19079-3 0  9990
2 40362  97.0643 194.4994 0002087 348.8364  11.2841 15.48406033641832
SMAP                    
1 40376U 15003A   26194.81483640  .00000206  00000+0  48892-4 0  9997
2 40376  98.1283 201.5329 0001590  95.1775 264.9608 14.63388478611515
KOMPSAT-3A              
1 40536U 15014A   26194.88875566  .00022194  00000+0  30528-3 0  9992
2 40536  97.6884 188.2315 0056388  80.2359 280.5256 15.55371498625961
SENTINEL-2A             
1 40697U 15028A   26194.85805090 -.00000105  00000+0 -23461-4 0  9996
2 40697  98.5684 269.3298 0001278  94.9725 265.1604 14.30813560577544
GAOFEN-8                
1 40701U 15030A   26194.87635472  .00016081  00000+0  32056-3 0  9999
2 40701  97.6890  29.8674 0009978  99.5149 260.7228 15.46917696615574
CARBONITE 1 (CBNT-1)    
1 40718U 15032D   26194.82284207  .00000434  00000+0  58681-4 0  9998
2 40718  97.6516  11.7768 0013716 201.8214 158.2418 14.83664065593292
YAOGAN-27               
1 40878U 15040A   26194.86389978  .00000201  00000+0  64071-3 0  9990
2 40878 100.1160 180.0901 0008517 148.0309 212.1322 13.16071862521177
GAOFEN-9 01             
1 40894U 15047A   26194.85075451  .00000489  00000+0  66073-4 0  9995
2 40894  97.6271 229.3329 0028540  54.7191 305.6687 14.82933512584140
YAOGAN-28               
1 41026U 15064A   26194.85222917  .00004208  00000+0  15762-3 0  9994
2 41026  97.3104 332.5806 0012079  97.2365 263.0248 15.27749373594750
YAOGAN-29               
1 41038U 15069A   26194.89497978 -.00000010  00000+0  54536-5 0  9999
2 41038  98.0024 223.5682 0000824  13.1391 346.9843 14.83104215574586
KENT RIDGE 1            
1 41167U 15077B   26194.88024859  .00002527  00000+0  72272-4 0  9994
2 41167  14.9803  67.4430 0008288 256.4533 103.4866 15.23280102585172
GAOFEN-4                
1 41194U 15083A   26194.68502446 -.00000340  00000+0  00000+0 0  9999
2 41194   0.4223  83.7871 0003940 124.9375  75.1281  1.00274923 38792
JASON-3                 
1 41240U 16002A   26194.87654647 -.00000022  00000+0  15784-3 0  9991
2 41240  66.0416  69.7248 0008196 271.0448  88.9632 12.87628572490683
SENTINEL-3A             
1 41335U 16011A   26194.86591147  .00000047  00000+0  37402-4 0  9998
2 41335  98.6238 261.8648 0001367  90.5342 269.5995 14.26739541541860
ZIYUAN 3-02 (ZY 3-02)   
1 41556U 16033A   26194.82844801  .00003087  00000+0  14026-3 0  9994
2 41556  97.3832 270.0903 0013919 189.6555 170.4415 15.21426337562030
CARTOSAT-2C             
1 41599U 16040A   26194.86736865  .00001356  00000+0  67523-4 0  9991
2 41599  97.4474 254.4758 0009712  49.2498 310.9579 15.19256024557764
SKYSAT-C1               
1 41601U 16040C   26194.65696348  .00005359  00000+0  15145-3 0  9992
2 41601  96.9551 224.9469 0000427 340.2568  19.8661 15.36731294561932
LAPAN-A3                
1 41603U 16040E   26194.88487347  .00001906  00000+0  61586-4 0  9991
2 41603  97.1503 190.1578 0008276 282.0439  77.9876 15.33272708558902
GAOFEN-3                
1 41727U 16049A   26194.86386450 -.00000162  00000+0 -35913-4 0  9998
2 41727  98.4013 202.2469 0001781  86.1404 273.9990 14.42218050522491
